{
  "norad_id": 67162,
  "name": "GSAT0234 (GALILEO 34)",
  "history": [
    {
      "epoch": "2026-03-27T16:42:04.337856",
      "apogee_km": 23233.458837237562,
      "perigee_km": 23210.785038891005,
      "latitude_deg": 5.514457379386642,
      "longitude_deg": 147.00481983995996,
      "semi_major_axis_km": 29600.258938064282,
      "eccentricity": 0.000383,
      "inclination_deg": 54.283,
      "raan_deg": 104.4494,
      "arg_perigee_deg": 286.8102,
      "mean_anomaly_deg": 76.5044,
      "mean_motion_rev_day": 1.70474528
    }
  ]
}